HELIOS 1B               
1 25977U 99064A   20333.70554159  .00000150  00000-0  25800-4 0  9990
2 25977  98.2984 134.5253 0001867 133.3446 226.7922 14.82511502130756
TERRA                   
1 25994U 99068A   20334.18878203  .00000110  00000-0  34488-4 0  9993
2 25994  98.1992  46.0556 0001139  92.1407 297.4171 14.57119472114303
SL-16 R/B               
1 26070U 00006B   20333.61403133 -.00000166  00000-0 -60626-4 0  9992
2 26070  71.0020 188.2890 0018633 239.1049 120.8242 14.15472350 75869
MTI                     
1 26102U 00014A   20334.20456368  .00012557  00000-0  17203-3 0  9998
2 26102  97.4802 224.5135 0007161 356.0534   4.0662 15.57505455150147
TITAN 4B R/B            
1 26474U 00047B   20334.12653279  .00000440  00000-0  48919-4 0  9994
2 26474  67.9939 342.4008 0054847  11.2626 348.9728 14.96028019103954
ENVISAT                 
1 27386U 02009A   20333.97725684  .00000054  00000-0  31177-4 0  9998
2 27386  98.1398 332.4001 0001321  90.9984 289.6646 14.38001684982268
IDEFIX & ARIANE 42P R/B 
1 27422U 02021B   20333.47683964  .00000025  00000-0  26230-4 0  9994
2 27422  98.3747 287.9264 0013271 104.6599 255.6056 14.29300272968599
AQUA                    
1 27424U 02022A   20334.14589218  .00000182  00000-0  50386-4 0  9992
2 27424  98.2081 272.3416 0001349 141.6396 280.5262 14.57109725987900
CZ-4B R/B               
1 27432U 02024C   20333.57134361 -.00000004  00000-0  21687-4 0  9990
2 27432  99.0902 338.5724 0051350  73.7487  33.3971 14.14100362956841
MIDORI II (ADEOS-II)    
1 27597U 02056A   20333.83849690  .00000071  00000-0  46345-4 0  9995
2 27597  98.5401 277.4337 0000609 142.6367 217.4856 14.27471167935264
H-2A R/B                
1 27601U 02056E   20333.60091045  .00000134  00000-0  62955-4 0  9994
2 27601  98.2097   0.7930 0072823 147.9205 323.6253 14.31986324938186
CZ-4B R/B               
1 28059U 03049C   20333.53755272  .00000079  00000-0  30679-4 0  9992
2 28059  98.4869 251.8932 0050126 358.3595   1.7428 14.52622182906653
CZ-2C R/B               
1 28222U 04012C   20333.87143097  .00001096  00000-0  68850-4 0  9990
2 28222  97.7002 297.0694 0046674 185.6716 226.1451 15.10574250910855
SL-16 R/B               
1 28353U 04021B   20333.37294927 -.00000147  00000-0 -52198-4 0  9995
2 28353  70.9995 315.5371 0002693  84.9490 275.1940 14.14233216850324
CZ-4B R/B               
1 28415U 04035C   20333.58391258  .00000676  00000-0  48100-4 0  9990
2 28415  97.5941  13.1845 0052271 151.3272 209.0848 15.06962383888353
CZ-2C R/B               
1 28480U 04046B   20333.57697597  .00000057  00000-0  36033-4 0  9993
2 28480  98.0633 355.6751 0143127  98.9938  12.9887 14.25734718833808
ARIANE 5 R/B            
1 28499U 04049H   20333.86975484  .00000177  00000-0  28896-4 0  9993
2 28499  98.0629  76.2370 0093438 101.7905   9.4822 14.80066415860456
CZ-2D R/B               
1 28738U 05024B   20333.56207593  .00000898  00000-0  55629-4 0  9993
2 28738  97.3728 350.6158 0011358 344.5388  15.5494 15.12173619846201
SUZAKU (ASTRO-EII)      
1 28773U 05025A   20333.50944035  .00002260  00000-0  10452-3 0  9995
2 28773  31.3834  29.7212 0004425  58.2395 301.8683 15.17869111848909
ALOS (DAICHI)           
1 28931U 06002A   20333.93217206  .00000248  00000-0  57224-4 0  9990
2 28931  97.8627 311.7573 0000577  28.9642 331.1595 14.62765784791746
H-2A R/B                
1 28932U 06002B   20333.74813560  .00000414  00000-0  43883-4 0  9996
2 28932  98.3303 333.1356 0089290 143.4824  29.3523 14.92354644805751
AKARI (ASTRO-F)         
1 28939U 06005A   20333.56022177  .00006590  00000-0  17003-3 0  9997
2 28939  98.2463 326.7826 0092574 109.3917 251.7359 15.35231832806061
RESURS-DK 1             
1 29228U 06021A   20333.58057624  .00000364  00000-0  34642-4 0  9996
2 29228  69.9343 130.1621 0006831 234.0800 125.9728 15.02600200797405
GENESIS 1               
1 29252U 06029A   20333.55929088  .00001312  00000-0  73356-4 0  9999
2 29252  64.5212 124.7693 0018860   2.4766 357.6447 15.18329447793012
CZ-4B R/B               
1 29507U 06046C   20333.59381054  .00000557  00000-0  48084-4 0  9990
2 29507  97.7203 354.7795 0047833 336.1919  23.7091 15.00578415769987
CZ-2C R/B               
1 31114U 07010B   20333.56068917  .00000041  00000-0  37657-4 0  9998
2 31114  98.2409 175.2703 0060287 147.8204 212.6676 14.19338381706282
COSMO-SKYMED 1          
1 31598U 07023A   20334.20351098  .00000065  00000-0  14749-4 0  9998
2 31598  97.8829 154.9794 0001446  91.8138 268.3232 14.82153939729239
GENESIS 2               
1 31789U 07028A   20333.80458907  .00001099  00000-0  64253-4 0  9990
2 31789  64.5014 165.9025 0033434 227.2211 132.6099 15.17447314740101
COSMOS 2428             
1 31792U 07029A   20334.09925778 -.00000213  00000-0 -89784-4 0  9997
2 31792  70.8951 287.0782 0008719 203.7679 156.3040 14.12250044692118
SL-16 R/B               
1 31793U 07029B   20333.58202277  .00000136  00000-0  95711-4 0  9992
2 31793  70.9769 261.5822 0002183 280.5961 256.0571 14.14442369692869
KORONAS-FOTON           
1 33504U 09003A   20333.48981890  .00000573  00000-0  28175-4 0  9997
2 33504  82.4439  59.5940 0020510  73.2474 287.1006 15.15782340652333
H-2A R/B                
1 38341U 12025E   20334.02758678  .00000355  00000-0  48869-4 0  9996
2 38341  98.5162 139.9062 0056515  63.8583 296.8428 14.84117407461868
CUSAT 2 & FALCON 9 R/B  
1 39271U 13055G   20333.40663534  .00009448  00000-0  22305-3 0  9998
2 39271  80.9658  90.4318 0581046  36.6112 327.3351 14.50016402374470
SL-4 R/B                
1 39679U 14021B   20333.49773488  .00001409  00000-0  85128-4 0  9995
2 39679  51.6167  66.0412 0171666 154.1654 206.8015 15.06634013364075
ALOS-2                  
1 39766U 14029A   20334.19714300 -.00000098  00000-0 -62326-5 0  9997
2 39766  97.9228  68.4392 0001478  93.8595 266.2788 14.79470470352058
CZ-2C R/B               
1 40306U 14071B   20333.83585898  .00009242  00000-0  18958-3 0  9992
2 40306  97.3447 282.0573 0013064 290.1878  69.7966 15.46179290339265
SL-27 R/B               
1 40354U 14084B   20333.52495054  .00002366  00000-0  58147-4 0  9994
2 40354  74.7406  48.5944 0036378 156.6927 203.5945 15.40559903333797
YAOGAN 29               
1 41038U 15069A   20334.08230930  .00000116  00000-0  22142-4 0  9997
2 41038  98.0244 321.9064 0002282  81.0575 279.0899 14.80471841270630
ASTRO-H (HITOMI)        
1 41337U 16012A   20333.50591157  .00000540  00000-0  36801-4 0  9993
2 41337  31.0066  49.5571 0012431 252.6766 107.2509 14.98743901262136
HXMT (HUIYAN)           
1 42758U 17034A   20334.17003816  .00000564  00000-0  48710-4 0  9998
2 42758  43.0181 212.2990 0011192 338.8488 161.7659 15.08971599190757
CZ-2C R/B               
1 43521U 18054D   20333.86176966  .00001172  00000-0  65310-4 0  9993
2 43521  35.1529 246.6276 0081814 128.4027 232.4068 15.11205730134032
AEOLUS                  
1 43600U 18066A   20334.07866082  .00048670  00000-0  19079-3 0  9997
2 43600  96.7195 338.0005 0007616 106.3664 253.8447 15.86801838131474
SAOCOM 1A               
1 43641U 18076A   20334.14436693  .00000086  00000-0  17346-4 0  9997
2 43641  97.8865 157.9207 0001378  85.5356 274.6018 14.82158474115992
CREW DRAGON DEMO-1 DEB  
1 44064U 19011B   20333.47620069  .00044326  00000-0  35159-3 0  9990
2 44064  51.6315 198.6166 0001045 283.7736  76.3145 15.70821552 98632
CZ-2F R/B               
1 46390U 20063B   20333.72387634  .00049675  00000-0  24388-3 0  9993
2 46390  50.2035 330.5418 0012884 316.3984  43.5979 15.81539400 13502
2020-063G               
1 46395U 20063G   20333.48154647  .00023795  00000-0  13374-3 0  9995
2 46395  50.2059 332.7832 0010641 306.8619  53.1385 15.79010704 13444
